#aV2006 11 20  0  0   .00000000      96 DD+AD WGS84 FIT  NGA
## 1402  86400.00000000   900.00000000 54059  .0000000000000
+   29     1  2  3  4  5  6  7  8  9 10 11 13 14 16 17 18 19
+         20 21 22 23 24 25 26 27 28 29 30 31  0  0  0  0  0
+          0  0  0  0  0  0  0  0  0  0  0  0  0  0  0  0  0
+          0  0  0  0  0  0  0  0  0  0  0  0  0  0  0  0  0
+          0  0  0  0  0  0  0  0  0  0  0  0  0  0  0  0  0
++         0  0  0  0  0  0  0  0  0  0  0  0  0  0  0  0  0
++         0  0  0  0  0  0  0  0  0  0  0  0  0  0  0  0  0
++         0  0  0  0  0  0  0  0  0  0  0  0  0  0  0  0  0
++         0  0  0  0  0  0  0  0  0  0  0  0  0  0  0  0  0
++         0  0  0  0  0  0  0  0  0  0  0  0  0  0  0  0  0
%c cc cc ccc ccc cccc cccc cccc cccc ccccc ccccc ccccc ccccc
%c cc cc ccc ccc cccc cccc cccc cccc ccccc ccccc ccccc ccccc
%f  0.0000000  0.000000000  0.00000000000  0.000000000000000
%f  0.0000000  0.000000000  0.00000000000  0.000000000000000
%i    0    0    0    0      0      0      0      0         0
%i    0    0    0    0      0      0      0      0         0
/*      NGA, ST. LOUIS,MO.                                  
/*   EPHEMERIS COMPUTED FROM  3 DAYS OF DATA                
/* CCCCCCCCCCCCCCCCCCCCCCCCCCCCCCCCCCCCCCCCCCCCCCCCCCCCCCCCC
/* CCCCCCCCCCCCCCCCCCCCCCCCCCCCCCCCCCCCCCCCCCCCCCCCCCCCCCCCC
*  2006 11 20 16 15   .00000000                                                 
P  1  14988.217620    843.166505 -21714.052879     90.390219                    
V  1   6843.424304  27126.855897   5658.625995       .028187                    
P  2 -21171.808898   9150.503552 -13196.051033     56.478051                    
V  2   9171.863728 -13958.870198 -25078.374024       .036125                    
P  3  15328.633095  -4405.502186  21059.339543    411.856109                    
V  3  10460.736555  25236.672742  -1988.075239       .292141                    
P  4 -16977.478017  -3283.845241 -20300.103932    338.452418                    
V  4  16968.761693 -19213.723521 -10750.966122       .040913                    
P  5  -8346.622399  14346.179212 -20939.097539    377.230582                    
V  5 -25817.670007  -4426.676236   7493.199923       .269023                    
P  6   6532.041997  25503.510838  -3088.739645    543.533190                    
V  6  -4878.603232  -2705.247095 -30845.697597      -.142989                    
P  7  15823.332278  18272.214599  11236.530276    491.568167                    
V  7   2044.159422  14029.817576 -26611.734285      -.079366                    
P  8  -9242.516512 -11664.360778  21844.657367    -86.719168                    
V  8  20117.810493 -19535.117472  -2330.093691      -.011319                    
P  9 -14931.277452  21568.598026  -3774.895412     45.455014                    
V  9  -4843.600240   1285.563318  31495.749738       .016240                    
P 10 -23909.351477   2219.627652  11596.188942     93.124517                    
V 10 -13849.444836  -5406.315664 -26980.816526       .006196                    
P 11  11364.149397 -23450.265678  -4395.799161     -3.703633                    
V 11   7222.177667  -1913.344514  29728.890578       .016429                    
P 13  -6280.382293 -25798.651264  -1375.409914    114.632045                    
V 13   2108.413452   1103.103410 -32372.380018       .036649                    
P 14  14693.472404  17087.055283 -14036.177761      -.527422                    
V 14   3622.027980  17574.477937  24971.715101       .009800                    
P 16  25386.712284    206.501060   8086.948065     93.712896                    
V 16   9292.061927   4728.895241 -29453.988318       .037718                    
P 17 -15263.683887 -16973.876147 -13678.143760     89.014069                    
V 17  -3064.783815 -17176.305099  24637.516887      -.011996                    
P 18  12073.500416  16130.996987  17597.066942   -252.779649                    
V 18 -21626.939730  -4224.423734  18532.434706      -.004275                    
P 19  10434.668863 -14865.103924  19448.899334     36.279958                    
V 19   7136.856072  23499.673420  14286.929610       .039852                    
P 20   5115.344855 -14594.726022 -21678.787950    -21.802382                    
V 20  26694.773538   5922.923626   2355.375748       .000385                    
P 21   3898.064906  16863.931016  20091.695415     62.106551                    
V 21 -18977.599170  17143.599429 -11303.530541       .014468                    
P 22  22284.445458  12126.788893   8062.209070    150.683009                    
V 22 -10405.505481     18.245632  29306.058250       .026658                    
P 23   1409.240826 -23496.149956 -12194.666877    140.842135                    
V 23   6726.135854  14044.446125 -26647.269986       .008369                    
P 24 -21391.769673   7082.170899 -14121.781684     53.849744                    
V 24  11523.568426 -14162.290798 -23913.947068       .029768                    
P 25  18973.102269  -4274.991892 -17757.448511    406.140476                    
V 25 -12765.900073  19577.105403 -17798.851494       .019916                    
P 26  -9804.274935  13599.147182  20027.671213    -12.788542                    
V 26  -8189.611690 -25171.670991  13376.402099      -.163709                    
P 27  -1566.729189 -19038.265106  18949.226140     79.038738                    
V 27  15562.506138 -16847.606347 -16470.827035       .019465                    
P 28 -20014.118517 -13446.217191  11828.770747     13.816321                    
V 28  14502.309909   1459.666181  26538.188091      -.009050                    
P 29 -12113.640422   9438.732042  21852.282754    208.470367                    
V 29  -8709.328096 -25754.414415   6671.036362       .275787                    
P 30   5389.928335  16204.880093 -20671.115843     17.018402                    
V 30 -25333.431812  -3781.291640  -9602.339517       .011353                    
P 31  18576.783708   -845.132245 -18785.722114    -39.519041                    
V 31 -15280.790474  18882.867682 -15759.675258       .095227                    
EOF
